{"type": "FeatureCollection", "features": [ {"type": "Feature", "properties": {"norad_id": 37056, "name": "FENGYUN 1C DEB", "group": "fengyun-1c-debris", "lat": 72.43514668918944, "lon": -26.335442435913343, "alt_km": 699.164833630125, "timestamp": "2025-12-07T16:44:04.200235+00:00", "meta": {"OBJECT_NAME": "FENGYUN 1C DEB", "OBJECT_ID": "1999-025EEQ", "EPOCH": "2025-12-06T18:51:26.283168", "MEAN_MOTION": 14.50419331, "ECCENTRICITY": 0.02687276, "INCLINATION": 98.982, "RA_OF_ASC_NODE": 2.6694, "ARG_OF_PERICENTER": 163.7082, "MEAN_ANOMALY": 197.2964, "EPHEMERIS_TYPE": 0, "CLASSIFICATION_TYPE": "U", "NORAD_CAT_ID": 37056, "ELEMENT_SET_NO": 999, "REV_AT_EPOCH": 65325, "BSTAR": 0.00055244919, "MEAN_MOTION_DOT": 3.381e-05, "MEAN_MOTION_DDOT": 0}, "tle": {"line1": "1 37056U 99025EEQ 25340.78572087  .00003381  00000+0  55245-3 0  9992", "line2": "2 37056  98.9820   2.6694 0268727 163.7082 197.2964 14.50419331653255"}}, "geometry": {"type": "Point", "coordinates": [-26.335442435913343, 72.43514668918944]}}, {"type": "Feature", "properties": {"norad_id": 37057, "name": "FENGYUN 1C DEB", "group": "fengyun-1c-debris", "lat": 79.37264443680111, "lon": -126.48093776405682, "alt_km": 784.4152382731472, "timestamp": "2025-12-07T16:44:04.200245+00:00", "meta": {"OBJECT_NAME": "FENGYUN 1C DEB", "OBJECT_ID": "1999-025EER", "EPOCH": "2025-12-06T19:37:50.575008", "MEAN_MOTION": 13.96093686, "ECCENTRICITY": 0.02847916, "INCLINATION": 98.9237, "RA_OF_ASC_NODE": 355.8055, "ARG_OF_PERICENTER": 155.7322, "MEAN_ANOMALY": 205.7563, "EPHEMERIS_TYPE": 0, "CLASSIFICATION_TYPE": "U", "NORAD_CAT_ID": 37057, "ELEMENT_SET_NO": 999, "REV_AT_EPOCH": 63515, "BSTAR": 0.00049940714, "MEAN_MOTION_DOT": 9.22e-06, "MEAN_MOTION_DDOT": 0}, "tle": {"line1": "1 37057U 99025EER 25340.81794647  .00000922  00000+0  49941-3 0  9999", "line2": "2 37057  98.9237 355.8055 0284791 155.7322 205.7563 13.96093686635158"}}, "geometry": {"type": "Point", "coordinates": [-126.48093776405682, 79.37264443680111]}}, {"type": "Feature", "properties": {"norad_id": 37061, "name": "FENGYUN 1C DEB", "group": "fengyun-1c-debris", "lat": 41.557208481299774, "lon": -125.52245292105614, "alt_km": 1474.9613109207658, "timestamp": "2025-12-07T16:44:04.200256+00:00", "meta": {"OBJECT_NAME": "FENGYUN 1C DEB", "OBJECT_ID": "1999-025EEV", "EPOCH": "2025-12-05T11:04:28.984512", "MEAN_MOTION": 13.13404917, "ECCENTRICITY": 0.08002301, "INCLINATION": 98.0947, "RA_OF_ASC_NODE": 45.5023, "ARG_OF_PERICENTER": 23.0897, "MEAN_ANOMALY": 340.4177, "EPHEMERIS_TYPE": 0, "CLASSIFICATION_TYPE": "U", "NORAD_CAT_ID": 37061, "ELEMENT_SET_NO": 999, "REV_AT_EPOCH": 8060, "BSTAR": 0.0048673504, "MEAN_MOTION_DOT": 9.37e-05, "MEAN_MOTION_DDOT": 0}, "tle": {"line1": "1 37061U 99025EEV 25339.46144658  .00009370  00000+0  48674-2 0  9991", "line2": "2 37061  98.0947  45.5023 0800230  23.0897 340.4177 13.13404917 80600"}}, "geometry": {"type": "Point", "coordinates": [-125.52245292105614, 41.557208481299774]}}, {"type": "Feature", "properties": {"norad_id": 37064, "name": "FENGYUN 1C DEB", "group": "fengyun-1c-debris", "lat": -21.521468350541745, "lon": 137.38240018911281, "alt_km": 901.8469583924862, "timestamp": "2025-12-07T16:44:04.200266+00:00", "meta": {"OBJECT_NAME": "FENGYUN 1C DEB", "OBJECT_ID": "1999-025EEY", "EPOCH": "2025-11-25T16:29:09.460320", "MEAN_MOTION": 14.15612933, "ECCENTRICITY": 0.01070067, "INCLINATION": 98.9095, "RA_OF_ASC_NODE": 121.83, "ARG_OF_PERICENTER": 150.7609, "MEAN_ANOMALY": 209.9612, "EPHEMERIS_TYPE": 0, "CLASSIFICATION_TYPE": "U", "NORAD_CAT_ID": 37064, "ELEMENT_SET_NO": 999, "REV_AT_EPOCH": 81294, "BSTAR": 0.0049331234, "MEAN_MOTION_DOT": 0.00010179, "MEAN_MOTION_DDOT": 0}, "tle": {"line1": "1 37064U 99025EEY 25329.68691505  .00010179  00000+0  49331-2 0  9995", "line2": "2 37064  98.9095 121.8300 0107006 150.7609 209.9612 14.15612933812947"}}, "geometry": {"type": "Point", "coordinates": [137.38240018911281, -21.521468350541745]}}, {"type": "Feature", "properties": {"norad_id": 37065, "name": "FENGYUN 1C DEB", "group": "fengyun-1c-debris", "lat": 10.862346919299448, "lon": -22.69163936595184, "alt_km": 1011.548171630925, "timestamp": "2025-12-07T16:44:04.200276+00:00", "meta": {"OBJECT_NAME": "FENGYUN 1C DEB", "OBJECT_ID": "1999-025EEZ", "EPOCH": "2025-11-29T04:41:54.899520", "MEAN_MOTION": 13.59013412, "ECCENTRICITY": 0.0298251, "INCLINATION": 103.2865, "RA_OF_ASC_NODE": 143.2258, "ARG_OF_PERICENTER": 271.3733, "MEAN_ANOMALY": 85.3247, "EPHEMERIS_TYPE": 0, "CLASSIFICATION_TYPE": "U", "NORAD_CAT_ID": 37065, "ELEMENT_SET_NO": 999, "REV_AT_EPOCH": 22018, "BSTAR": 0.0027486644, "MEAN_MOTION_DOT": 2.63e-05, "MEAN_MOTION_DDOT": 0}, "tle": {"line1": "1 37065U 99025EEZ 25333.19577430  .00002630  00000+0  27487-2 0  9998", "line2": "2 37065 103.2865 143.2258 0298251 271.3733  85.3247 13.59013412220187"}}, "geometry": {"type": "Point", "coordinates": [-22.69163936595184, 10.862346919299448]}}, {"type": "Feature", "properties": {"norad_id": 37067, "name": "FENGYUN 1C DEB", "group": "fengyun-1c-debris", "lat": -48.36311076252994, "lon": -66.06497866192078, "alt_km": 1011.8007705742175, "timestamp": "2025-12-07T16:44:04.200287+00:00", "meta": {"OBJECT_NAME": "FENGYUN 1C DEB", "OBJECT_ID": "1999-025EFB", "EPOCH": "2025-12-05T01:31:18.563520", "MEAN_MOTION": 14.00188813, "ECCENTRICITY": 0.01548335, "INCLINATION": 99.5373, "RA_OF_ASC_NODE": 280.2882, "ARG_OF_PERICENTER": 132.7207, "MEAN_ANOMALY": 228.7111, "EPHEMERIS_TYPE": 0, "CLASSIFICATION_TYPE": "U", "NORAD_CAT_ID": 37067, "ELEMENT_SET_NO": 999, "REV_AT_EPOCH": 57301, "BSTAR": 0.0059507708, "MEAN_MOTION_DOT": 9.709e-05, "MEAN_MOTION_DDOT": 0}, "tle": {"line1": "1 37067U 99025EFB 25339.06340930  .00009709  00000+0  59508-2 0  9998", "line2": "2 37067  99.5373 280.2882 0154833 132.7207 228.7111 14.00188813573019"}}, "geometry": {"type": "Point", "coordinates": [-66.06497866192078, -48.36311076252994]}}, {"type": "Feature", "properties": {"norad_id": 37069, "name": "FENGYUN 1C DEB", "group": "fengyun-1c-debris", "lat": -63.50592943453942, "lon": 122.35417920030282, "alt_km": 835.0466594821783, "timestamp": "2025-12-07T16:44:04.200297+00:00", "meta": {"OBJECT_NAME": "FENGYUN 1C DEB", "OBJECT_ID": "1999-025EFD", "EPOCH": "2025-12-04T04:55:22.230624", "MEAN_MOTION": 13.37917724, "ECCENTRICITY": 0.0425847, "INCLINATION": 95.8476, "RA_OF_ASC_NODE": 312.1985, "ARG_OF_PERICENTER": 279.5864, "MEAN_ANOMALY": 75.7415, "EPHEMERIS_TYPE": 0, "CLASSIFICATION_TYPE": "U", "NORAD_CAT_ID": 37069, "ELEMENT_SET_NO": 999, "REV_AT_EPOCH": 87594, "BSTAR": 0.0066764, "MEAN_MOTION_DOT": 5.926e-05, "MEAN_MOTION_DDOT": 0}, "tle": {"line1": "1 37069U 99025EFD 25338.20511841  .00005926  00000+0  66764-2 0  9995", "line2": "2 37069  95.8476 312.1985 0425847 279.5864  75.7415 13.37917724875942"}}, "geometry": {"type": "Point", "coordinates": [122.35417920030282, -63.50592943453942]}}, {"type": "Feature", "properties": {"norad_id": 37077, "name": "FENGYUN 1C DEB", "group": "fengyun-1c-debris", "lat": 76.13819376665836, "lon": -83.30249862747014, "alt_km": 777.6714897160418, "timestamp": "2025-12-07T16:44:04.200307+00:00", "meta": {"OBJECT_NAME": "FENGYUN 1C DEB", "OBJECT_ID": "1999-025EFM", "EPOCH": "2025-12-05T04:17:17.651328", "MEAN_MOTION": 14.41168731, "ECCENTRICITY": 0.00957072, "INCLINATION": 99.0353, "RA_OF_ASC_NODE": 53.8847, "ARG_OF_PERICENTER": 351.1246, "MEAN_ANOMALY": 8.8245, "EPHEMERIS_TYPE": 0, "CLASSIFICATION_TYPE": "U", "NORAD_CAT_ID": 37077, "ELEMENT_SET_NO": 999, "REV_AT_EPOCH": 84846, "BSTAR": 0.00063491938, "MEAN_MOTION_DOT": 2.111e-05, "MEAN_MOTION_DDOT": 0}, "tle": {"line1": "1 37077U 99025EFM 25339.17867652  .00002111  00000+0  63492-3 0  9994", "line2": "2 37077  99.0353  53.8847 0095707 351.1246   8.8245 14.41168731848463"}}, "geometry": {"type": "Point", "coordinates": [-83.30249862747014, 76.13819376665836]}}, {"type": "Feature", "properties": {"norad_id": 37079, "name": "FENGYUN 1C DEB", "group": "fengyun-1c-debris", "lat": -27.538957566414133, "lon": 120.97965950245913, "alt_km": 709.1266360550235, "timestamp": "2025-12-07T16:44:04.200318+00:00", "meta": {"OBJECT_NAME": "FENGYUN 1C DEB", "OBJECT_ID": "1999-025EFP", "EPOCH": "2025-12-06T03:01:13.167840", "MEAN_MOTION": 14.59499818, "ECCENTRICITY": 0.00126214, "INCLINATION": 98.8577, "RA_OF_ASC_NODE": 114.6392, "ARG_OF_PERICENTER": 162.9927, "MEAN_ANOMALY": 197.1696, "EPHEMERIS_TYPE": 0, "CLASSIFICATION_TYPE": "U", "NORAD_CAT_ID": 37079, "ELEMENT_SET_NO": 999, "REV_AT_EPOCH": 64519, "BSTAR": 0.0062109056, "MEAN_MOTION_DOT": 0.00029587, "MEAN_MOTION_DDOT": 0}, "tle": {"line1": "1 37079U 99025EFP 25340.12584685  .00029587  00000+0  62109-2 0  9994", "line2": "2 37079  98.8577 114.6392 0012621 162.9927 197.1696 14.59499818645198"}}, "geometry": {"type": "Point", "coordinates": [120.97965950245913, -27.538957566414133]}}, {"type": "Feature", "properties": {"norad_id": 37081, "name": "FENGYUN 1C DEB", "group": "fengyun-1c-debris", "lat": -79.88340616927755, "lon": -166.69455460943206, "alt_km": 842.3078399171673, "timestamp": "2025-12-07T16:44:04.200328+00:00", "meta": {"OBJECT_NAME": "FENGYUN 1C DEB", "OBJECT_ID": "1999-025EFR", "EPOCH": "2025-12-04T16:05:13.028352", "MEAN_MOTION": 14.13719832, "ECCENTRICITY": 0.026348, "INCLINATION": 98.7084, "RA_OF_ASC_NODE": 131.1485, "ARG_OF_PERICENTER": 11.9086, "MEAN_ANOMALY": 348.8157, "EPHEMERIS_TYPE": 0, "CLASSIFICATION_TYPE": "U", "NORAD_CAT_ID": 37081, "ELEMENT_SET_NO": 999, "REV_AT_EPOCH": 58460, "BSTAR": 0.0070093, "MEAN_MOTION_DOT": 0.00018467, "MEAN_MOTION_DDOT": 0}, "tle": {"line1": "1 37081U 99025EFR 25338.67028968  .00018467  00000+0  70093-2 0  9997", "line2": "2 37081  98.7084 131.1485 0263480  11.9086 348.8157 14.13719832584606"}}, "geometry": {"type": "Point", "coordinates": [-166.69455460943206, -79.88340616927755]}}]}